CZ-2C R/B               
1 54039U 22132E   25338.62409172  .00056466  00000+0  85800-3 0  9993
2 54039  97.2939 334.6717 0023744  83.5248 276.8708 15.54057168175578
GSLV R/B                
1 54149U 22138AN  25338.62883085  .00006316  00000+0  55686-3 0  9998
2 54149  87.3833 198.1895 0023368 132.3657 227.9558 14.96067071169710
XRISM                   
1 57800U 23137A   25338.63901172  .00008322  00000+0  49066-3 0  9998
2 57800  30.9996 177.8434 0007650 163.5018 196.5870 15.10222218123404
ACS3                    
1 59588U 24077B   25338.15813942  .00068182  00000+0  58546-1 0  9992
2 59588  97.2751 295.6785 0077693 356.8851   3.1816 13.84881818 80959
