CCSDS_OMM_VERS = 2.0
CREATION_DATE  = 
ORIGINATOR     = 

OBJECT_NAME    = CZ-2C R/B
OBJECT_ID      = 2022-132E
CENTER_NAME    = EARTH
REF_FRAME      = TEME
TIME_SYSTEM    = UTC
MEAN_ELEMENT_THEORY = SGP/SGP4

EPOCH          = 2025-12-04T14:58:41.524608
MEAN_MOTION    = 15.54057168
ECCENTRICITY   = .0023744
INCLINATION    = 97.2939
RA_OF_ASC_NODE = 334.6717
ARG_OF_PERICENTER = 83.5248
MEAN_ANOMALY   = 276.8708

EPHEMERIS_TYPE = 0
CLASSIFICATION_TYPE = U
NORAD_CAT_ID   = 54039
ELEMENT_SET_NO = 999
REV_AT_EPOCH   = 17557
BSTAR          = .85800198E-3
MEAN_MOTION_DOT = .56466E-3
MEAN_MOTION_DDOT = 0

CCSDS_OMM_VERS = 2.0
CREATION_DATE  = 
ORIGINATOR     = 

OBJECT_NAME    = GSLV R/B
OBJECT_ID      = 2022-138AN
CENTER_NAME    = EARTH
REF_FRAME      = TEME
TIME_SYSTEM    = UTC
MEAN_ELEMENT_THEORY = SGP/SGP4

EPOCH          = 2025-12-04T15:05:30.985440
MEAN_MOTION    = 14.96067071
ECCENTRICITY   = .00233687
INCLINATION    = 87.3833
RA_OF_ASC_NODE = 198.1895
ARG_OF_PERICENTER = 132.3657
MEAN_ANOMALY   = 227.9558

EPHEMERIS_TYPE = 0
CLASSIFICATION_TYPE = U
NORAD_CAT_ID   = 54149
ELEMENT_SET_NO = 999
REV_AT_EPOCH   = 16971
BSTAR          = .55685994E-3
MEAN_MOTION_DOT = .6316E-4
MEAN_MOTION_DDOT = 0

CCSDS_OMM_VERS = 2.0
CREATION_DATE  = 
ORIGINATOR     = 

OBJECT_NAME    = XRISM
OBJECT_ID      = 2023-137A
CENTER_NAME    = EARTH
REF_FRAME      = TEME
TIME_SYSTEM    = UTC
MEAN_ELEMENT_THEORY = SGP/SGP4

EPOCH          = 2025-12-04T15:20:10.612608
MEAN_MOTION    = 15.10222218
ECCENTRICITY   = .00076507
INCLINATION    = 30.9996
RA_OF_ASC_NODE = 177.8434
ARG_OF_PERICENTER = 163.5018
MEAN_ANOMALY   = 196.5870

EPHEMERIS_TYPE = 0
CLASSIFICATION_TYPE = U
NORAD_CAT_ID   = 57800
ELEMENT_SET_NO = 999
REV_AT_EPOCH   = 12340
BSTAR          = .49065858E-3
MEAN_MOTION_DOT = .8322E-4
MEAN_MOTION_DDOT = 0

CCSDS_OMM_VERS = 2.0
CREATION_DATE  = 
ORIGINATOR     = 

OBJECT_NAME    = ACS3
OBJECT_ID      = 2024-077B
CENTER_NAME    = EARTH
REF_FRAME      = TEME
TIME_SYSTEM    = UTC
MEAN_ELEMENT_THEORY = SGP/SGP4

EPOCH          = 2025-12-04T03:47:43.245888
MEAN_MOTION    = 13.84881818
ECCENTRICITY   = .00776939
INCLINATION    = 97.2751
RA_OF_ASC_NODE = 295.6785
ARG_OF_PERICENTER = 356.8851
MEAN_ANOMALY   = 3.1816

EPHEMERIS_TYPE = 0
CLASSIFICATION_TYPE = U
NORAD_CAT_ID   = 59588
ELEMENT_SET_NO = 999
REV_AT_EPOCH   = 8095
BSTAR          = .58546365E-1
MEAN_MOTION_DOT = .68182E-3
MEAN_MOTION_DDOT = 0

